#aV2013 10  4  0  0  0.00000000     288 DD+AD WGS84 FIT  NGA
## 1760 432000.00000000   300.00000000 56569 0.0000000000000
+   31     1  2  3  4  5  6  7  8  9 10 11 12 13 14 15 16 17
+         18 19 20 21 22 23 24 25 26 27 28 29 31 32  0  0  0
+          0  0  0  0  0  0  0  0  0  0  0  0  0  0  0  0  0
+          0  0  0  0  0  0  0  0  0  0  0  0  0  0  0  0  0
+          0  0  0  0  0  0  0  0  0  0  0  0  0  0  0  0  0
++         2  2  2  2  2  2  2  2  2  2  2  2  2  2  2  2  2
++         2  2  2  2  2  2  2  2  2  2  2  2  2  2  2  0  0
++         0  0  0  0  0  0  0  0  0  0  0  0  0  0  0  0  0
++         0  0  0  0  0  0  0  0  0  0  0  0  0  0  0  0  0
++         0  0  0  0  0  0  0  0  0  0  0  0  0  0  0  0  0
%c cc cc ccc ccc cccc cccc cccc cccc ccccc ccccc ccccc ccccc
%c cc cc ccc ccc cccc cccc cccc cccc ccccc ccccc ccccc ccccc
%f  0.0000000  0.000000000  0.00000000000  0.000000000000000
%f  0.0000000  0.000000000  0.00000000000  0.000000000000000
%i    0    0    0    0      0      0      0      0         0
%i    0    0    0    0      0      0      0      0         0
/*      NGA, ST. LOUIS,MO.                                  
/*   EPHEMERIS COMPUTED FROM  1 DAYS OF DATA
/*   EPOCHA SMOOTHER  
/* CCCCCCCCCCCCCCCCCCCCCCCCCCCCCCCCCCCCCCCCCCCCCCCCCCCCCCCCC
*  2013 10  4 13 50  0.00000000                                                 
P  1  13732.264270 -22047.638068   5238.465317     81.543928                    
V  1   -112.170630   7285.561460  30883.804533      0.038312                    
P  2 -16610.169773   1209.685625 -20357.233200    454.347071                    
V  2   8936.878148 -25049.049127  -9185.107035      0.017640                    
P  3  19867.824831   2192.779625  17042.840202    268.175126                    
V  3  14428.853772  17660.406529 -18332.003952      0.050756                    
P  4 -11337.171383 -12330.622420 -20862.625050      1.596109                    
V  4  11192.883946 -23434.907666   8145.687294      0.004794                    
P  5 -26525.187935   1609.899137  -1981.698603   -399.301808                    
V  5   2107.786676  -3322.931592 -31247.690781      0.002712                    
P  6  20952.788875   9265.096287  13813.803593     85.859364                    
V  6   9386.224436  14768.783631 -23863.036973      0.185633                    
P  7   4224.976457 -24309.769565   9446.320811    265.790580                    
V  7   7205.252322  -9875.732428 -29135.469514      0.041922                    
P  8  -3078.705443 -18543.531435  18626.051479      8.865602                    
V  8  12903.284794 -19709.930698 -18205.513586      0.003266                    
P  9  -4356.413232 -19006.817158  17442.644525    273.118770                    
V  9  10664.426615 -20666.090042 -19401.367857      0.027656                    
P 10 -18443.114739 -10347.559269 -16628.355009    -96.853648                    
V 10  20156.688255  -3756.904489 -19978.059099     -0.014649                    
P 11  13067.981661 -18230.041052  13570.759700   -425.631316                    
V 11   2044.381154  18664.136225  22585.225939     -0.034060                    
P 12 -19570.445299  10907.018653 -14150.157963    160.117964                    
V 12 -17997.988803   -305.604355  24935.962358      0.021990                    
P 13  -2153.796325 -22385.690283 -14146.715479     73.474100                    
V 13  10524.488551  14417.092299 -24778.257922     -0.038086                    
P 14  15522.362655  21483.189988  -2476.016705    214.207213                    
V 14   -163.883844   4111.964690  31707.701362     -0.009590                    
P 15 -12309.097730   9699.096455  21412.220969   -140.294711                    
V 15 -17002.980701 -21419.179267    194.142583     -0.018895                    
P 16  26679.785611   -300.939726  -1892.551717   -245.287697                    
V 16  -2232.764075   1847.854007 -31966.754541      0.008695                    
P 17 -15436.189858 -21746.600965   -906.202969    -27.743571                    
V 17   1244.744405  -2544.628883  31686.138112     -0.036973                    
P 18   2103.049780  16006.599967  21515.876546    277.546201                    
V 18 -26317.366716   2893.509572     84.265149      0.020145                    
P 19  14534.699930  -4958.230884  21586.379220   -408.923777                    
V 19  14138.284515  23754.042694  -3624.475190     -0.027651                    
P 20  14854.916916 -14916.129695 -16329.129119    126.952570                    
V 20  20663.717820   -985.861081  19993.714476      0.026816                    
P 21   -321.432807  23590.960042  12271.673289   -321.915107                    
V 21  -8960.283441  12392.699883 -25780.429550     -0.019029                    
P 22  15051.710228  12256.174770  18390.470200    188.029126                    
V 22 -22670.170118   4431.254653  15626.742720      0.017342                    
P 23   6027.155153 -16035.768450 -20097.688995     42.291320                    
V 23  16164.671960  20229.775930 -11640.224951     -0.034520                    
P 24 -15350.058590  19630.807301   9108.145753    -14.911571                    
V 24   2097.915955 -11711.762809  28811.256306     -0.007182                    
P 25  -6336.966899  15072.117733 -20969.001133    154.088429                    
V 25 -26382.166320   2318.946411   9762.021539      0.038392                    
P 26 -17933.052326  -6197.061904  18079.060559    221.883110                    
V 26 -11300.833233 -21353.821887 -17595.390999      0.188352                    
P 27  19425.412746   6255.476845  16994.533923    -44.079328                    
V 27  11446.487672  18399.794364 -19828.521297     -0.042952                    
P 28 -11168.468837 -13231.802228  20780.633909    297.868583                    
V 28  24888.618141  -1882.230553  12371.571184      0.030876                    
P 29    206.902868  20851.553338 -16432.000203    476.033409                    
V 29 -12983.516039 -16482.536998 -20991.382256      0.032404                    
P 31  11101.546219  10392.583096 -21571.365253    327.218702                    
V 31 -12316.323150  24907.334407   5892.342182      0.007557                    
P 32  23175.965263  -7571.221390  -9743.941331   -543.489301                    
V 32  12801.426506   2971.357553  28371.068096      0.033259                    
EOF
